STARLINK-2377           
1 47797U 21018L   26068.73343145  .00001697  00000+0  71115-4 0  9999
2 47797  53.1565 254.8446 0001171 128.8916 231.2189 15.29354486276557
LYNK TOWER 5            
1 59121U 24043Z   26068.92489786  .00009048  00000+0  31902-3 0  9994
2 59121  97.5458 204.7305 0010406 234.6422 125.3846 15.29454506111860
