[{"OBJECT_NAME":"STARLINK-2377","OBJECT_ID":"2021-018L","EPOCH":"2026-03-09T17:36:08.477280","MEAN_MOTION":15.29354486,"ECCENTRICITY":0.00011714,"INCLINATION":53.1565,"RA_OF_ASC_NODE":254.8446,"ARG_OF_PERICENTER":128.8916,"MEAN_ANOMALY":231.2189,"EPHEMERIS_TYPE":0,"CLASSIFICATION_TYPE":"U","NORAD_CAT_ID":47797,"ELEMENT_SET_NO":999,"REV_AT_EPOCH":27655,"BSTAR":7.1115072e-5,"MEAN_MOTION_DOT":1.697e-5,"MEAN_MOTION_DDOT":0},{"OBJECT_NAME":"LYNK TOWER 5","OBJECT_ID":"2024-043Z","EPOCH":"2026-03-09T22:11:51.175104","MEAN_MOTION":15.29454506,"ECCENTRICITY":0.00104056,"INCLINATION":97.5458,"RA_OF_ASC_NODE":204.7305,"ARG_OF_PERICENTER":234.6422,"MEAN_ANOMALY":125.3846,"EPHEMERIS_TYPE":0,"CLASSIFICATION_TYPE":"U","NORAD_CAT_ID":59121,"ELEMENT_SET_NO":999,"REV_AT_EPOCH":11186,"BSTAR":0.00031901545,"MEAN_MOTION_DOT":9.048e-5,"MEAN_MOTION_DDOT":0}]
